COSMOS 1975             
1 19573U 88093A   24325.49538920  .00012686  00000+0  61059-3 0  9995
2 19573  82.5248 230.1466 0016344  43.9181 316.3349 15.18538209947205
SL-14 R/B               
1 19574U 88093B   24325.33330958  .00001047  00000+0  11986-3 0  9993
2 19574  82.5290 127.0839 0021227 163.5009 249.9361 14.84904606930628
SL-16 R/B               
1 19650U 88102B   24325.29318106 -.00000171  00000+0 -62386-4 0  9995
2 19650  71.0001  69.5958 0014035   3.3218 356.7996 14.16042394859735
INTERCOSMOS 24          
1 20261U 89080A   24325.56650605  .00001066  00000+0  31814-3 0  9997
2 20261  82.6095  52.6384 1191482 312.2609  38.3200 12.58497015607135
SL-14 R/B               
1 20262U 89080C   24325.42820456  .00001208  00000+0  36264-3 0  9998
2 20262  82.5895 117.6805 1232116 188.5087 169.3259 12.50021311600885
DELTA 1 R/B             
1 20323U 89089B   24325.18682502  .00000783  00000+0  20493-3 0  9990
2 20323  97.1200 235.7396 0069655 179.2080 180.9241 14.50008696826958
ARIANE 40 R/B           
1 20443U 90005H   24325.18402427  .00000732  00000+0  24942-3 0  9996
2 20443  98.3760  27.2839 0010154 185.0191 175.0897 14.39324128824531
DELTA 2 R/B(1)          
1 20453U 90008B   24325.39912185  .00037448  00000+0  11519-2 0  9999
2 20453  35.6179 311.6677 0175908 306.5570  51.9077 15.18882334853204
COSMOS 2058             
1 20465U 90010A   24325.58317000  .00006051  00000+0  41125-3 0  9994
2 20465  82.4836 152.2271 0013803 126.3581 233.8922 15.06118228870740
SL-14 R/B               
1 20466U 90010B   24325.50852756  .00000781  00000+0  93181-4 0  9993
2 20466  82.5027 352.5103 0021435  64.5637 295.7793 14.82866658858196
SL-14 R/B               
1 20511U 90018B   24325.54549042  .00000904  00000+0  11235-3 0  9993
2 20511  82.5194 306.0680 0015623 206.6471 153.3941 14.81459223852365
HST                     
1 20580U 90037B   24325.52999159  .00010205  00000+0  43583-3 0  9992
2 20580  28.4702  15.2167 0001679 304.5716  55.4719 15.21197547700832
SL-16 R/B               
1 20625U 90046B   24324.91571629 -.00000176  00000+0 -66257-4 0  9994
2 20625  70.9990 214.9408 0016351 301.1933  58.7587 14.14907660781234
COSMOS 2084             
1 20663U 90055A   24325.57819879  .00006358  00000+0  46554-3 0  9994
2 20663  62.7890 147.8685 0092317 134.9039 225.9601 15.01158172865028
SL-6 R/B(2)             
1 20666U 90055D   24325.50808874  .00005421  00000+0  43088-3 0  9992
2 20666  62.7852  62.5543 0061117 160.0906 200.2597 15.00150649866966
SL-8 R/B                
1 20775U 90078B   24325.52089665  .00019071  00000+0  69727-3 0  9993
2 20775  82.9101 311.1426 0441447 145.8792 217.1658 14.68199818739208
SL-8 R/B                
1 21088U 91006B   24325.30803303  .00000192  00000+0  17757-3 0  9992
2 21088  82.9415 162.9408 0021330 285.0776 202.4182 13.77393057698764
OKEAN-3                 
1 21397U 91039A   24325.28029133  .00005538  00000+0  43666-3 0  9996
2 21397  82.5193  75.0738 0015993 141.0135 219.2245 15.00478568793787
COSMOS 2151             
1 21422U 91042A   24325.56807661  .00002830  00000+0  24137-3 0  9994
2 21422  82.4981 180.0309 0011608 216.1146 143.9294 14.97339548792174
SL-14 R/B               
1 21423U 91042B   24325.36794127  .00000926  00000+0  11593-3 0  9991
2 21423  82.4909 304.7891 0017293   5.1593 354.9796 14.81173505782840
ERS-1                   
1 21574U 91050A   24325.34430966  .00000518  00000+0  18231-3 0  9996
2 21574  98.7881 320.6849 0032419 167.0082 193.1947 14.38885622747501
ARIANE 40 R/B           
1 21610U 91050F   24325.20174865  .00000685  00000+0  22048-3 0  9991
2 21610  98.2708  22.5172 0004255  78.3621 281.8047 14.42284430750585
INTERCOSMOS 25          
1 21819U 91086A   24325.52638774  .00003777  00000+0  74371-3 0  9991
2 21819  82.6062 236.2388 1497148  57.6182 316.1012 12.09640395439292
SL-8 R/B                
1 21876U 92008B   24325.60620667  .00000171  00000+0  15993-3 0  9990
2 21876  82.9265 260.2999 0035409  20.9659 102.0931 13.75883731644227
SL-8 R/B                
1 21938U 92020B   24325.55819191  .00000224  00000+0  21680-3 0  9998
2 21938  82.9282 145.9013 0029086 178.9310 212.2335 13.75463494635955
USA 81                  
1 21949U 92023A   24325.21503684  .00000366  00000+0  12891-3 0  9994
2 21949  85.0102  45.1408 0002686  97.1568 262.9929 14.32087415 26870
COSMOS 2219             
1 22219U 92076A   24324.84831576 -.00000045  00000+0  97868-6 0  9990
2 22219  71.0604 290.6115 0019357 213.6496 146.3399 14.13957803651251
SL-16 R/B               
1 22220U 92076B   24325.38228208  .00000231  00000+0  13911-3 0  9994
2 22220  70.9983 107.4120 0010628  99.7075 281.1899 14.16735808654652
COSMOS 2221             
1 22236U 92080A   24325.54114889  .00003420  00000+0  32335-3 0  9997
2 22236  82.5067  12.2370 0014414 348.9052  11.1848 14.93350401709958
SL-16 R/B               
1 22285U 92093B   24325.31410153 -.00000125  00000+0 -39587-4 0  9991
2 22285  71.0214 280.0246 0006505 296.1399  63.9054 14.15333595646038
COSMOS 2228             
1 22286U 92094A   24325.55727456  .00003835  00000+0  35634-3 0  9993
2 22286  82.5177 330.2284 0021038  96.9051 263.4564 14.93960311705186
SL-16 R/B               
1 22566U 93016B   24325.44987552  .00000076  00000+0  63471-4 0  9997
2 22566  71.0047 131.1534 0011717 316.1517  43.8674 14.15195009635079
COSMOS 2242             
1 22626U 93024A   24325.43078238  .00003068  00000+0  28791-3 0  9993
2 22626  82.5205 359.3021 0018812  99.2948 261.0401 14.93541499709522
SL-16 R/B               
1 22803U 93059B   24325.36511318  .00000238  00000+0  14202-3 0  9999
2 22803  70.9899 291.2965 0018585 219.4410 140.5362 14.17108447612334
ARIANE 40 R/B           
1 22830U 93061H   24325.41630991  .00000483  00000+0  19457-3 0  9996
2 22830  98.5547  31.0903 0009823 243.9613 116.0560 14.32411081626199
COSMOS 2278             
1 23087U 94023A   24325.01638595  .00000345  00000+0  20552-3 0  9999
2 23087  71.0539  88.0868 0008062  19.0741 341.0682 14.14208872577698
SL-16 R/B               
1 23088U 94023B   24325.00482325 -.00000110  00000+0 -32202-4 0  9995
2 23088  71.0006 347.7006 0005819 287.5291  72.5195 14.14915409578941
SL-16 R/B               
1 23343U 94074B   24325.57030243  .00000949  00000+0  13654-3 0  9992
2 23343  97.7681   3.2713 0005970 335.7820 185.5991 14.78584344617167
SL-16 R/B               
1 23405U 94077B   24324.32319489  .00000346  00000+0  20177-3 0  9997
2 23405  70.9825 272.4932 0003056 214.2061 145.8865 14.15461292548960
ARIANE 40+ R/B          
1 23561U 95021B   24325.22223866  .00000610  00000+0  21083-3 0  9994
2 23561  98.5108  30.6362 0007845 119.1025 295.8420 14.39218785550988
SL-16 R/B               
1 23705U 95058B   24325.36704201 -.00000192  00000+0 -74197-4 0  9998
2 23705  71.0203  96.0207 0010573 129.4666 230.7394 14.15398908500737
SL-16 R/B               
1 24298U 96051B   24325.38089916 -.00000152  00000+0 -55534-4 0  9991
2 24298  70.7860  98.7352 0013660 116.0224 244.2304 14.12456198454677
ORBVIEW 2 (SEASTAR)     
1 24883U 97037A   24325.43394688  .00000652  00000+0  24564-3 0  9998
2 24883  98.7973 107.9782 0002613  39.4643 320.6731 14.34917841440445
SL-16 R/B               
1 25400U 98043G   24325.26110997  .00000190  00000+0  98633-4 0  9998
2 25400  98.7630 266.0697 0009114 316.3890  43.6568 14.25869370371375
SL-16 R/B               
1 25407U 98045B   24325.04411642  .00000163  00000+0  10660-3 0  9997
2 25407  71.0105  99.6666 0006835  10.8087 349.3182 14.16079527359900
ISS (ZARYA)             
1 25544U 98067A   24325.69903498  .00023151  00000+0  41566-3 0  9990
2 25544  51.6388 259.9835 0007559 247.3062 182.1154 15.49754585482823
CZ-4B R/B               
1 25732U 99025C   24325.57620918  .00000140  00000+0  89306-4 0  9992
2 25732  98.7317   8.3413 0036122 267.0999 257.2438 14.18089017320961
OKEAN-O                 
1 25860U 99039A   24325.58951078  .00001309  00000+0  18369-3 0  9992
2 25860  98.0156  17.5902 0001905  85.4283 274.7146 14.79151962364279
SL-16 R/B               
1 25861U 99039B   24325.16302345  .00001111  00000+0  15121-3 0  9998
2 25861  98.0682  12.1765 0015029   0.3429 359.7790 14.80711045366617
DELTA 2 R/B             
1 25876U 99041E   24325.58938936  .00001619  00000+0  30359-3 0  9997
2 25876  51.7639  31.8540 0512459  31.3971 331.6507 14.09497836296106
HELIOS 1B               
1 25977U 99064A   24325.11205522  .00002320  00000+0  27637-3 0  9996
2 25977  98.2188 201.8555 0001933 119.2768 240.8639 14.85359213614750
TERRA                   
1 25994U 99068A   24325.63910469  .00000985  00000+0  21342-3 0  9991
2 25994  98.0293  24.4123 0001517 202.3622 319.0661 14.60241416325879
SL-16 R/B               
1 26070U 00006B   24325.14891708 -.00000129  00000+0 -41251-4 0  9995
2 26070  71.0038  15.5566 0016862 192.7159 167.3541 14.15713366281398
TITAN 4B R/B            
1 26474U 00047B   24325.43633622  .00005849  00000+0  41433-3 0  9992
2 26474  67.9916 289.3618 0048734 218.3826 141.3851 15.04541586321442
ENVISAT                 
1 27386U 02009A   24325.38780230  .00000296  00000+0  11019-3 0  9995
2 27386  98.3058 281.2259 0001332  81.9071  66.0800 14.38762682190967
IDEFIX & ARIANE 42P R/B 
1 27422U 02021B   24325.29299950  .00000618  00000+0  25386-3 0  9994
2 27422  98.5421 259.9673 0012487 139.4951 220.7163 14.30481494176185
AQUA                    
1 27424U 02022A   24325.58118435  .00002369  00000+0  49961-3 0  9997
2 27424  98.3511 275.7816 0001465  42.5402  12.5243 14.60363900199498
CZ-4B R/B               
1 27432U 02024C   24325.59323458  .00000122  00000+0  86532-4 0  9993
2 27432  98.9560   8.5268 0049251 288.3908 234.7608 14.14409697162212
MIDORI II (ADEOS-II)    
1 27597U 02056A   24324.88190312  .00000642  00000+0  27311-3 0  9998
2 27597  98.7118 271.0892 0000872  24.9683 335.1541 14.28705880142488
